{
    "links": {
        "self": "http://www.neowsapp.com/rest/v1/neo/3662229?api_key=iIulBulltgU6a56xZRHN4H3l9WmuAYTsLGpBGhQ2"
    },
    "id": "3662229",
    "neo_reference_id": "3662229",
    "name": "(2014 DR)",
    "designation": "2014 DR",
    "nasa_jpl_url": "http://ssd.jpl.nasa.gov/sbdb.cgi?sstr=3662229",
    "absolute_magnitude_h": 21.2,
    "estimated_diameter": {
        "kilometers": {
            "estimated_diameter_min": 0.1529519353,
            "estimated_diameter_max": 0.3420109247
        },
        "meters": {
            "estimated_diameter_min": 152.9519353442,
            "estimated_diameter_max": 342.0109247198
        },
        "miles": {
            "estimated_diameter_min": 0.095039897,
            "estimated_diameter_max": 0.2125156703
        },
        "feet": {
            "estimated_diameter_min": 501.8108275547,
            "estimated_diameter_max": 1122.0831222578
        }
    },
    "is_potentially_hazardous_asteroid": false,
    "close_approach_data": [
        {
            "close_approach_date": "2013-11-25",
            "close_approach_date_full": "2013-Nov-25 13:03",
            "epoch_date_close_approach": 1385384580000,
            "relative_velocity": {
                "kilometers_per_second": "11.9108216797",
                "kilometers_per_hour": "42878.9580469852",
                "miles_per_hour": "26643.3170153614"
            },
            "miss_distance": {
                "astronomical": "0.332181415",
                "lunar": "129.218570435",
                "kilometers": "49693632.13758605",
                "miles": "30878191.16954549"
            },
            "orbiting_body": "Earth"
        },
        {
            "close_approach_date": "2014-01-12",
            "close_approach_date_full": "2014-Jan-12 08:27",
            "epoch_date_close_approach": 1389515220000,
            "relative_velocity": {
                "kilometers_per_second": "8.9607926649",
                "kilometers_per_hour": "32258.8535937545",
                "miles_per_hour": "20044.397112186"
            },
            "miss_distance": {
                "astronomical": "0.3535319787",
                "lunar": "137.5239397143",
                "kilometers": "52887630.990405369",
                "miles": "32862850.0268333322"
            },
            "orbiting_body": "Earth"
        },
        {
            "close_approach_date": "2021-06-17",
            "close_approach_date_full": "2021-Jun-17 06:55",
            "epoch_date_close_approach": 1623912900000,
            "relative_velocity": {
                "kilometers_per_second": "30.1916539961",
                "kilometers_per_hour": "108689.9543858142",
                "miles_per_hour": "67535.7108237855"
            },
            "miss_distance": {
                "astronomical": "0.4980533649",
                "lunar": "193.7427589461",
                "kilometers": "74507722.535372763",
                "miles": "46296951.9652916094"
            },
            "orbiting_body": "Earth"
        },
        {
            "close_approach_date": "2077-12-24",
            "close_approach_date_full": "2077-Dec-24 03:42",
            "epoch_date_close_approach": 3407542920000,
            "relative_velocity": {
                "kilometers_per_second": "11.1918044594",
                "kilometers_per_hour": "40290.4960538",
                "miles_per_hour": "25034.947395207"
            },
            "miss_distance": {
                "astronomical": "0.077426309",
                "lunar": "30.118834201",
                "kilometers": "11582810.90836183",
                "miles": "7197224.958700054"
            },
            "orbiting_body": "Mars"
        },
        {
            "close_approach_date": "2080-08-02",
            "close_approach_date_full": "2080-Aug-02 12:15",
            "epoch_date_close_approach": 3489826500000,
            "relative_velocity": {
                "kilometers_per_second": "12.9078972529",
                "kilometers_per_hour": "46468.4301104479",
                "miles_per_hour": "28873.6753650169"
            },
            "miss_distance": {
                "astronomical": "0.1994548141",
                "lunar": "77.5879226849",
                "kilometers": "29838015.350605967",
                "miles": "18540483.0052456646"
            },
            "orbiting_body": "Earth"
        }
    ],
    "orbital_data": {
        "orbit_id": "6",
        "orbit_determination_date": "2017-04-06 08:42:25",
        "first_observation_date": "2014-02-20",
        "last_observation_date": "2014-03-07",
        "data_arc_in_days": 15,
        "observations_used": 26,
        "orbit_uncertainty": "9",
        "minimum_orbit_intersection": ".105538",
        "jupiter_tisserand_invariant": "4.734",
        "epoch_osculation": "2456710.5",
        "eccentricity": ".5142025333546801",
        "semi_major_axis": "1.339746370011176",
        "inclination": "12.2889736028014",
        "ascending_node_longitude": "141.7951187544828",
        "orbital_period": "566.411823477744",
        "perihelion_distance": ".6508453924986927",
        "perihelion_argument": "238.5345807065576",
        "aphelion_distance": "2.028647347523659",
        "perihelion_time": "2456596.389188228720",
        "mean_anomaly": "72.52654435324469",
        "mean_motion": ".6355799527446578",
        "equinox": "J2000",
        "orbit_class": {
            "orbit_class_type": "APO",
            "orbit_class_description": "Near-Earth asteroid orbits which cross the Earth’s orbit similar to that of 1862 Apollo",
            "orbit_class_range": "a (semi-major axis) > 1.0 AU; q (perihelion) < 1.017 AU"
        }
    },
    "is_sentry_object": false
}